[{"OBJECT_NAME":"STARLINK-5529","OBJECT_ID":"2023-064AZ","EPOCH":"2026-03-09T11:37:28.058592","MEAN_MOTION":14.98326175,"ECCENTRICITY":0.00033241,"INCLINATION":69.9996,"RA_OF_ASC_NODE":104.9006,"ARG_OF_PERICENTER":264.4846,"MEAN_ANOMALY":95.5934,"EPHEMERIS_TYPE":0,"CLASSIFICATION_TYPE":"U","NORAD_CAT_ID":56495,"ELEMENT_SET_NO":999,"REV_AT_EPOCH":15620,"BSTAR":2.0532138e-5,"MEAN_MOTION_DOT":1.52e-6,"MEAN_MOTION_DDOT":0},{"OBJECT_NAME":"SATELIOT_4","OBJECT_ID":"2024-149BX","EPOCH":"2026-03-09T17:48:54.333792","MEAN_MOTION":14.96254023,"ECCENTRICITY":0.00023903,"INCLINATION":97.6789,"RA_OF_ASC_NODE":145.1106,"ARG_OF_PERICENTER":45.2073,"MEAN_ANOMALY":314.9342,"EPHEMERIS_TYPE":0,"CLASSIFICATION_TYPE":"U","NORAD_CAT_ID":60537,"ELEMENT_SET_NO":999,"REV_AT_EPOCH":8510,"BSTAR":0.00026256084,"MEAN_MOTION_DOT":2.907e-5,"MEAN_MOTION_DDOT":0}]
